{
    "links": {
        "self": "http://www.neowsapp.com/rest/v1/neo/3869326?api_key=iIulBulltgU6a56xZRHN4H3l9WmuAYTsLGpBGhQ2"
    },
    "id": "3869326",
    "neo_reference_id": "3869326",
    "name": "(2019 SQ5)",
    "designation": "2019 SQ5",
    "nasa_jpl_url": "http://ssd.jpl.nasa.gov/sbdb.cgi?sstr=3869326",
    "absolute_magnitude_h": 23.4,
    "estimated_diameter": {
        "kilometers": {
            "estimated_diameter_min": 0.0555334912,
            "estimated_diameter_max": 0.1241766613
        },
        "meters": {
            "estimated_diameter_min": 55.5334911581,
            "estimated_diameter_max": 124.1766612574
        },
        "miles": {
            "estimated_diameter_min": 0.0345069009,
            "estimated_diameter_max": 0.0771597762
        },
        "feet": {
            "estimated_diameter_min": 182.1964991311,
            "estimated_diameter_max": 407.4037573197
        }
    },
    "is_potentially_hazardous_asteroid": false,
    "close_approach_data": [
        {
            "close_approach_date": "2019-09-28",
            "close_approach_date_full": "2019-Sep-28 20:55",
            "epoch_date_close_approach": 1569704100000,
            "relative_velocity": {
                "kilometers_per_second": "4.697153103",
                "kilometers_per_hour": "16909.7511707665",
                "miles_per_hour": "10507.0617760799"
            },
            "miss_distance": {
                "astronomical": "0.2536027705",
                "lunar": "98.6514777245",
                "kilometers": "37938434.292898835",
                "miles": "23573849.935660523"
            },
            "orbiting_body": "Earth"
        }
    ],
    "orbital_data": {
        "orbit_id": "2",
        "orbit_determination_date": "2019-10-23 05:55:43",
        "first_observation_date": "2019-09-25",
        "last_observation_date": "2019-10-23",
        "data_arc_in_days": 28,
        "observations_used": 12,
        "orbit_uncertainty": "7",
        "minimum_orbit_intersection": ".220395",
        "jupiter_tisserand_invariant": "3.277",
        "epoch_osculation": "2459000.5",
        "eccentricity": ".5095811148462511",
        "semi_major_axis": "2.486089726394789",
        "inclination": "5.481137533539182",
        "ascending_node_longitude": "354.6202145352073",
        "orbital_period": "1431.771209296677",
        "perihelion_distance": "1.219225352010721",
        "perihelion_argument": "16.06653255140609",
        "aphelion_distance": "3.752954100778857",
        "perihelion_time": "2458768.197690446336",
        "mean_anomaly": "58.40935401990631",
        "mean_motion": ".2514368201165613",
        "equinox": "J2000",
        "orbit_class": {
            "orbit_class_type": "AMO",
            "orbit_class_description": "Near-Earth asteroid orbits similar to that of 1221 Amor",
            "orbit_class_range": "1.017 AU < q (perihelion) < 1.3 AU"
        }
    },
    "is_sentry_object": false
}